#dP2022  8 13  0  0  0.00000000      97 __u+U IGS14 FIT  IAC
## 2222 518400.00000000   900.00000000 59804 0.0000000000000
+  116   C06C07C08C09C10C11C12C13C14C16C19C20C21C22C23C24C25
+        C26C27C28C29C30C32C33C34C35C36C37C38C39C40C41C42C43
+        C44C45C46E01E02E03E04E05E07E08E09E10E11E12E13E14E15
+        E18E19E21E24E25E26E27E30E31E33E34E36G01G02G03G04G05
+        G06G07G08G09G10G11G12G13G14G15G16G17G18G19G20G21G22
+        G23G24G25G26G27G28G29G30G32J02J03R01R02R03R04R05R07
+        R08R09R11R12R13R14R15R17R18R19R20R21R24R25  0  0  0
++         7  7  7  7  7  7  6  7  6  7  6  5  6  5  6  6  6
++         6  6  6  6  6  6  6  6  5  6  6  6  6  6  6  6  6
++         6  6  6  4  4  4  4  4  4  4  4  5  5  4  4  4  4
++         5  4  4  4  4  4  4  4  4  4  5  4  3  4  3  3  4
++         3  4  3  3  3  3  3  4  3  4  4  3  3  3  4  3  4
++         3  3  3  3  3  4  4  3  3  9  9  7  6  6  6  6  6
++         6  6  6  6  7  6  6  6  6  7  7  6  6 12  0  0  0
%c M  cc GPS ccc cccc cccc cccc cccc ccccc ccccc ccccc ccccc
%c cc cc ccc ccc cccc cccc cccc cccc ccccc ccccc ccccc ccccc
%f  1.2500000  1.025000000  0.00000000000  0.000000000000000
%f  0.0000000  0.000000000  0.00000000000  0.000000000000000
%i    0    0    0    0      0      0      0      0         0
%i    0    0    0    0      0      0      0      0         0
/* INFORMATION & ANALYSIS CENTER (IAC)            FINAL DATA
/* S/V CLOCKS ARE ALIGNED TO GNSS TIME                      
/* G:C1WC2W R:C1PC2P E:C1XC5X C:C2IC6I J:C1CC2S             
/* PCV:IGS14_2218 OL/AL:FES2004  NONE     YN ORB:CoN CLK:CoN
*  2022 08 13 18  0  0.00000000
PC06 -16714.786670  37409.229584   9420.526711    603.887020
PC07  -2536.108701  34099.753158  24806.083262      1.841195
PC08 -11685.668404  19826.915470 -35367.007313    439.714752
PC09 -10812.192939  36510.359948  17918.583353   -896.384551
PC10   3819.260602  36978.906859  20644.219108    108.938480
PC11  -9263.393442 -13687.566684  22538.855323   -471.500135
PC12   4765.032695 -24811.010412  11856.663074   -551.434447
PC13  -4676.031294  22064.775611 -35525.036397     51.692882
PC14 -17761.013328 -20701.126315  -5737.370768    589.669124
PC16 -18653.121925  37085.450247   6669.784824    142.578941
PC19  19971.013329  13342.544990  14246.065104   -422.313995
PC20  13748.386154  24228.464562  -1905.354739     73.636412
PC21   1273.932715 -21232.968137  18061.204170   -179.616907
PC22  14942.029393  -5696.071727  22866.635502   -160.090598
PC23 -25885.672132   6667.920881   8028.765253   -963.231679
PC24  -9580.226649 -15112.270824 -21420.213100   -968.695567
PC25 -26066.934822  -4778.945272  -8777.456707   -693.423381
PC26   9710.916496 -15648.449399 -20963.722691    695.647768
PC27 -11015.146888  25385.569447  -3595.819347      4.767550
PC28 -18922.139011  15844.214082  13035.687769      0.867747
PC29  15933.827193   3319.203933 -22676.760458    594.899142
PC30   3574.108115  20983.520744 -18047.186407    502.072674
PC32  -1148.366877  21225.188854 -18077.011192   -578.432375
PC33 -20041.775231 -13290.048234 -14144.096501   -402.240702
PC34  -4387.615899 -20297.089594  18635.878959   -336.976714
PC35  18611.427165 -15385.593367 -14022.103536    410.785592
PC36  25675.507729   5769.548433   9312.800960   -968.845027
PC37 -11452.531079  15135.680626  20485.130245   -932.155654
PC38 -19970.048571  20395.828338 -31077.550036     16.926764
PC39 -20356.953435  36797.776955    181.471027     -0.242782
PC40  -5892.330692  30197.701879  28914.202403     -2.252753
PC41 -15216.114179   5247.051336 -22749.896643   -163.833705
PC42 -13028.839796 -24478.637974   3065.674139   -108.733154
PC43 -15683.461891  -4222.901816  22679.988732      8.437763
PC44  10254.144028 -25751.935675   3335.636845     16.458017
PC45  25728.150252  -6816.773377  -8344.102998    834.140674
PC46  11330.166943  14548.794833  20944.436240   -484.703005
PE01 -14735.436176 -20191.060874 -15846.632680   -534.075293
PE02  14882.193615  20177.992764  15728.985467    318.141898
PE03   7435.470793  27154.629993   9160.007580   -589.108789
PE04 -16036.327861 -11230.565997 -22195.449417  -1092.722158
PE05  -5724.946954  27430.648645  -9541.106287   -153.840023
PE07  15357.022936 -11752.928674  22411.718503   -696.292081
PE08  15971.338888  11050.897833  22341.762871   -580.654458
PE09 -15196.953919  11767.017375 -22513.662846   -621.753170
PE10 -25727.132998   6330.790557  13197.435428   -507.227754
PE11 -25945.901252  13836.502571   3355.415916   2646.945019
PE12 -21521.984266  -1917.005188  20217.814180   -113.384725
PE13  26061.110593 -13408.184170  -4147.281062    430.231326
PE14 -13392.107206  -8898.145503  17305.099314  -1750.544475
PE15  21382.338433   1969.936760 -20374.753504    727.100387
PE18  17195.771681  14947.725247 -22963.939154  -1099.193033
PE19  -5739.548645 -28212.951519  -6872.601654  -4819.289682
PE21   4302.574406 -16446.771756 -24224.553610   -751.618206
PE24 -22917.462605   2146.972261  18615.175368   -778.906454
PE25  -4618.454441  16315.804684  24273.571717   -584.429674
PE26  14613.864532 -20879.860236  15041.417350  -1490.976212
PE27  22218.421161  -3076.221629 -19301.994401   -367.528391
PE30  26668.381799  12638.291465  -2226.092405   -751.719533
PE31 -26899.727461 -11961.273932   3095.373835   -501.613472
PE33  -4121.304760 -16096.609440  24492.461341   -453.866014
PE34   4337.161135  16005.840348 -24533.206904   -490.768936
PE36 -15402.774883  20789.666604 -14382.878579   -416.253540
PG01  -4228.548752  16855.236209 -20289.174624    302.732675
PG02  17302.570569 -18155.787248   9658.708756   -649.194024
PG03   4969.026131  18457.790271 -18609.315001   -330.956615
PG04  -1286.444128  26415.675734   1834.889993   -133.477178
PG05   8631.378745 -12430.048980  21655.914666    -92.759663
PG06  24393.646272  -5200.086881  -9181.483555    423.749328
PG07  12636.172206  10715.863658  21260.888779    314.735005
PG08  -5789.695678  24781.096783   6889.861830    -80.322569
PG09   7629.308355  22308.706916  12123.472515   -308.565956
PG10 -23657.527719 -10892.886272  -5826.299718   -526.801552
PG11  23375.816259 -12247.074413   2847.242612    -11.172444
PG12  -1715.666460 -18275.917489 -19500.020355   -261.760927
PG13  12966.032433 -18901.649859  13099.192756    367.244772
PG14  23026.709507  12543.708817  -4567.967803   -109.352126
PG15   2936.760775 -25369.989469   6258.375344    -37.556961
PG16 -14970.761688   6357.112898  20812.867780   -520.308475
PG17  13060.851352   8916.347832 -20895.002825    648.008149
PG18 -12590.281661 -10009.640069  21150.327940     82.901992
PG19  15257.310865  -1493.197906 -21911.848402    196.728891
PG20  19572.105199  -4781.248085  17193.864762    495.085193
PG21 -12729.981350  18396.245118 -13118.291671    160.512878
PG22 -15297.743928   4941.977754 -20693.069246    309.257727
PG23 -20614.775982 -16303.889937   4247.144316    -36.763781
PG24   7104.421822 -19084.875680 -17142.185267    169.362474
PG25 -14555.454786 -19297.172917 -11599.927254    360.439020
PG26 -21784.298342    339.299890  15316.070417    223.502011
PG27 -12416.544596  16035.897381  16721.302325    219.414082
PG28  22025.102553   6671.871363 -12541.899536    340.320272
PG29  -5154.447686 -22892.060976  12316.019243   -542.493374
PG30  21219.083167   2891.995810  15962.239306   -535.816192
PG32 -14674.851507  -5512.378309 -21314.723635   -202.928164
PJ02 -28115.818385  20661.361697  28690.867288     -3.102780
PJ03 -33078.113999  26102.762235   7828.098890     -0.632864
PR01 -11398.260558 -22537.942239  -3536.896399     13.079020
PR02 -13439.853099  -9191.611393 -19619.041523    526.823667
PR03  -7808.726555   9137.201665 -22449.534452     61.766248
PR04   2154.328980  21948.547319 -12782.433627    153.790621
PR05  10774.267750  22771.680533   3932.184618     97.878626
PR07   7422.133567  -9960.584074  22322.495918     39.318476
PR08  -2215.840556 -22034.952627  12737.310054    -66.677196
PR09  25253.592146   3716.200880   1146.553797     71.037130
PR11   4138.186794 -10412.250135 -22901.018119     30.502554
PR12 -15698.088321 -10497.126068 -17122.753763     19.980074
PR13 -24975.299376  -4494.896209  -2580.769061    -25.677775
PR14 -19820.728146   4792.468393  15328.769996     24.527682
PR15  -3189.716471  10693.242147  22963.186599     94.220464
PR17 -17739.960650  16824.168357   7360.861793    552.082120
PR18 -11408.609994  20738.325978  -9444.823724     37.355772
PR19   -462.885137  14717.580573 -20837.640500   -199.865725
PR20  14181.909860  -2123.693505 -21102.267914    -76.445245
PR21  17567.582060 -17518.980529  -5856.951981   -325.283112
PR24 -14773.512529   2839.119244  20617.705977    108.728053
PR25  11670.598538 -20357.137376  10035.506080     12.029517
EOF
